NORAD_CAT_ID,OBJECT_NAME,OBJECT_TYPE,EPOCH,MEAN_MOTION,ECCENTRICITY,INCLINATION,RA_OF_ASC_NODE,ARG_OF_PERICENTER,MEAN_ANOMALY,BSTAR,MEAN_MOTION_DOT,MEAN_MOTION_DDOT,TLE_LINE0,TLE_LINE1,TLE_LINE2,SEMIMAJOR_AXIS,PERIOD,APOGEE,PERIGEE,DECAYED
52131.0,STARLINK-3711,PAYLOAD,2022-04-28 14:00:01,15.73279349,9.8e-05,53.2139,304.1829,113.7622,99.0617,-0.00025476,-0.0003634,0.0,0 STARLINK-3711,1 52131U 22029AV  22118.58334491 -.00036340  00000-0 -25476-3 0  9993,2 52131  53.2139 304.1829 0000980 113.7622  99.0617 15.73279349  3705,6727.669,91.529,350.1930000000001,348.875,0.0
52131.0,STARLINK-3711,PAYLOAD,2022-04-29 04:00:00,15.73246685,0.0001237,53.2138,301.2962,95.8272,182.7724,-0.00075145,-0.00104983,0.0,0 STARLINK-3711,1 52131U 22029AV  22119.16667824 -.00104983  00000-0 -75145-3 0  9994,2 52131  53.2138 301.2962 0001237  95.8272 182.7724 15.73246685  7707,6727.762,91.53,350.459,348.795,0.0
52131.0,STARLINK-3711,PAYLOAD,2022-04-29 14:00:01,15.73157123,0.0001326,53.2142,299.2336,98.1609,21.5925,-0.00018122,-0.00025928,0.0,0 STARLINK-3711,1 52131U 22029AV  22119.58334491 -.00025928  00000-0 -18122-3 0  9994,2 52131  53.2142 299.2336 0001326  98.1609  21.5925 15.73157123  3709,6728.017,91.536,350.775,348.99,0.0
52131.0,STARLINK-3711,PAYLOAD,2022-04-29 20:00:01,15.73141577,0.0001281999999999,53.2139,297.998,88.0492,8.3618,-0.00010025,-0.00014629,0.0,0 STARLINK-3711,1 52131U 22029AV  22119.83334491 -.00014629  00000-0 -10025-3 0  9992,2 52131  53.2139 297.9980 0001282  88.0492   8.3618 15.73141577  7818,6728.062,91.537,350.789,349.064,0.0
52131.0,STARLINK-3711,PAYLOAD,2022-04-29 22:00:00,15.73108591,0.0001212,53.2139,297.5858,84.5687,124.0656,0.00041029,0.00057128,0.0,0 STARLINK-3711,1 52131U 22029AV  22119.91667824  .00057128  00000-0  41029-3 0  9997,2 52131  53.2139 297.5858 0001212  84.5687 124.0656 15.73108591  3697,6728.156,91.538,350.836,349.205,0.0
52131.0,STARLINK-3711,PAYLOAD,2022-04-30 04:00:00,15.73147956,0.0001075,53.2135,296.3472,91.5034,93.7597,0.0003565,0.00049596,0.0,0 STARLINK-3711,1 52131U 22029AV  22120.16667824  .00049596  00000-0  35650-3 0  9999,2 52131  53.2135 296.3472 0001075  91.5034  93.7597 15.73147956  7860,6728.044,91.536,350.63199999999995,349.185,0.0
52131.0,STARLINK-3711,PAYLOAD,2022-04-30 12:00:00,15.7320676,0.000116,53.2138,294.6969,100.4086,173.7095,-0.0001932,-0.00027652,0.0,0 STARLINK-3711,1 52131U 22029AV  22120.50001157 -.00027652  00000-0 -19320-3 0  9995,2 52131  53.2138 294.6969 0001160 100.4086 173.7095 15.73206760  7914,6727.876,91.533,350.521,348.96,0.0
52131.0,STARLINK-3711,PAYLOAD,2022-04-30 14:00:01,15.73219868,0.0001155,53.2138,294.285,96.2368,290.1086,-0.00045127,-0.00063529,0.0,0 STARLINK-3711,1 52131U 22029AV  22120.58334491 -.00063529  00000-0 -45127-3 0  9990,2 52131  53.2138 294.2850 0001155  96.2368 290.1086 15.73219868  3674,6727.839,91.532,350.481,348.926,0.0
52131.0,STARLINK-3711,PAYLOAD,2022-04-30 20:00:01,15.73197412,0.0001137,53.2139,293.0493,84.0219,279.04400000000004,0.00017938,0.00024626,0.0,0 STARLINK-3711,1 52131U 22029AV  22120.83334491  .00024626  00000-0  17938-3 0  9990,2 52131  53.2139 293.0493 0001137  84.0219 279.0440 15.73197412  7972,6727.903,91.533,350.533,349.00300000000016,0.0
52131.0,STARLINK-3711,PAYLOAD,2022-04-30 22:00:00,15.73197232,0.0001067,53.2139,292.6371,81.1061,34.1933,0.00022266,0.00030739,0.0,0 STARLINK-3711,1 52131U 22029AV  22120.91667824  .00030739  00000-0  22266-3 0  9990,2 52131  53.2139 292.6371 0001067  81.1061  34.1933 15.73197232  3701,6727.903,91.533,350.486,349.05,0.0
52131.0,STARLINK-3711,PAYLOAD,2022-05-01 04:00:00,15.73182469,9.22e-05,53.214,291.3982,87.0762,4.917,0.00029251,0.00040599,0.0,0 STARLINK-3711,1 52131U 22029AV  22121.16667824  .00040599  00000-0  29251-3 0  9994,2 52131  53.2140 291.3982 0000922  87.0762   4.9170 15.73182469  8023,6727.945,91.534,350.43,349.19,0.0
52131.0,STARLINK-3711,PAYLOAD,2022-05-01 14:00:01,15.73255624,9.89e-05,53.2144,289.3361,86.4306,206.6965,-0.00077546,-0.00108313,0.0,0 STARLINK-3711,1 52131U 22029AV  22121.58334491 -.00108313  00000-0 -77546-3 0  9992,2 52131  53.2144 289.3361 0000989  86.4306 206.6965 15.73255624  3689,6727.736999999999,91.53,350.267,348.936,0.0
52131.0,STARLINK-3711,PAYLOAD,2022-05-01 20:00:01,15.73165962,0.0001049,53.2143,288.1003,71.6833,198.1735,0.00019708,0.00027088,0.0,0 STARLINK-3711,1 52131U 22029AV  22121.83334491  .00027088  00000-0  19708-3 0  9993,2 52131  53.2143 288.1003 0001049  71.6833 198.1735 15.73165962  8126,6727.9919999999975,91.535,350.56300000000016,349.151,0.0
52131.0,STARLINK-3711,PAYLOAD,2022-05-01 22:00:01,15.73140081,9.39e-05,53.214,287.6879,68.6881,313.4662,0.00068298,0.00096086,0.0,0 STARLINK-3711,1 52131U 22029AV  22121.91668981  .00096086  00000-0  68298-3 0  9998,2 52131  53.2140 287.6879 0000939  68.6881 313.4662 15.73140081  3709,6728.066,91.537,350.56300000000016,349.2990000000001,0.0
52131.0,STARLINK-3711,PAYLOAD,2022-05-02 14:00:01,15.73272486,0.000102,53.2143,284.3875,81.1129,118.7632,-0.00086136,-0.00120162,0.0,0 STARLINK-3711,1 52131U 22029AV  22122.58334491 -.00120162  00000-0 -86136-3 0  9994,2 52131  53.2143 284.3875 0001020  81.1129 118.7632 15.73272486  3707,6727.689,91.529,350.24,348.867,0.0
52131.0,STARLINK-3711,PAYLOAD,2022-05-02 20:00:01,15.73172972,0.0001228,53.2144,283.1517,69.2158,107.4114,2.1304e-06,-3.21e-06,0.0,0 STARLINK-3711,1 52131U 22029AV  22122.83334491 -.00000321  00000-0  21304-5 0  9993,2 52131  53.2144 283.1517 0001228  69.2158 107.4114 15.73172972  8284,6727.972,91.535,350.663,349.011,0.0
52131.0,STARLINK-3711,PAYLOAD,2022-05-02 22:00:01,15.73146138,0.0001250999999999,53.2142,282.7392,68.7652,220.1592,0.00043655,0.00060951,0.0,0 STARLINK-3711,1 52131U 22029AV  22122.91668981  .00060951  00000-0  43655-3 0  9991,2 52131  53.2142 282.7392 0001251  68.7652 220.1592 15.73146138  3707,6728.049,91.536,350.755,349.07199999999995,0.0
52131.0,STARLINK-3711,PAYLOAD,2022-05-03 12:00:00,15.73223661,0.0001262,53.2149,279.8505,77.3265,277.0968,0.00020919,0.00028869,0.0,0 STARLINK-3711,1 52131U 22029AV  22123.50001157  .00028869  00000-0  20919-3 0  9993,2 52131  53.2149 279.8505 0001262  77.3265 277.0968 15.73223661  8389,6727.828,91.532,350.542,348.844,0.0
52131.0,STARLINK-3711,PAYLOAD,2022-05-03 14:00:01,15.73248743,0.0001281,53.2148,279.4388,73.8274,32.8305,-0.000139,-0.00020122,0.0,0 STARLINK-3711,1 52131U 22029AV  22123.58334491 -.00020122  00000-0 -13900-3 0  9999,2 52131  53.2148 279.4388 0001281  73.8274  32.8305 15.73248743  3694,6727.755999999999,91.53,350.483,348.759,0.0
52131.0,STARLINK-3711,PAYLOAD,2022-05-03 22:00:00,15.73224415,0.0001206,53.2143,277.7903,59.4764,136.1935,0.00027863,0.00038705,0.0,0 STARLINK-3711,1 52131U 22029AV  22123.91667824  .00038705  00000-0  27863-3 0  9992,2 52131  53.2143 277.7903 0001206  59.4764 136.1935 15.73224415  3703,6727.826,91.532,350.50199999999984,348.879,0.0
52131.0,STARLINK-3711,PAYLOAD,2022-05-04 04:00:00,15.73238055,0.000114,53.2145,276.5514,66.043,106.3481,-0.00033572,-0.00047546,0.0,0 STARLINK-3711,1 52131U 22029AV  22124.16667824 -.00047546  00000-0 -33572-3 0  9999,2 52131  53.2145 276.5514 0001140  66.0430 106.3481 15.73238055  8492,6727.7869999999975,91.531,350.4190000000001,348.885,0.0
52131.0,STARLINK-3711,PAYLOAD,2022-05-04 12:00:00,15.7325732,0.0001141,53.2146,274.902,71.6842,189.6615,-9.4845e-05,-0.00013941,0.0,0 STARLINK-3711,1 52131U 22029AV  22124.50001157 -.00013941  00000-0 -94845-4 0  9991,2 52131  53.2146 274.9020 0001141  71.6842 189.6615 15.73257320  8542,6727.732,91.53,350.36400000000015,348.829,0.0
52131.0,STARLINK-3711,PAYLOAD,2022-05-04 14:00:01,15.73283699,0.0001169,53.2145,274.4902,64.8684,308.7178,-0.00057197,-0.00080414,0.0,0 STARLINK-3711,1 52131U 22029AV  22124.58334491 -.00080414  00000-0 -57197-3 0  9996,2 52131  53.2145 274.4902 0001169  64.8684 308.7178 15.73283699  3702,6727.656999999997,91.528,350.30800000000005,348.735,0.0
52131.0,STARLINK-3711,PAYLOAD,2022-05-04 22:00:01,15.73228315,0.0001250999999999,53.2143,272.8414,52.8159,49.8543,-6.492600000000001e-05,-9.732e-05,0.0,0 STARLINK-3711,1 52131U 22029AV  22124.91668981 -.00009732  00000-0 -64926-4 0  9990,2 52131  53.2143 272.8414 0001251  52.8159  49.8543 15.73228315  3709,6727.814,91.532,350.521,348.838,0.0
52131.0,STARLINK-3711,PAYLOAD,2022-05-05 12:00:00,15.73238445,0.0001385,53.215,269.9532,64.5309,103.7194,-0.00050807,-0.00071439,0.0,0 STARLINK-3711,1 52131U 22029AV  22125.50001157 -.00071439  00000-0 -50807-3 0  9997,2 52131  53.2150 269.9532 0001385  64.5309 103.7194 15.73238445  8702,6727.786,91.531,350.582,348.719,0.0
52131.0,STARLINK-3711,PAYLOAD,2022-05-05 14:00:01,15.73231976,0.0001392,53.2148,269.5414,60.2259,220.2656,-0.00064003,-0.00089616,0.0,0 STARLINK-3711,1 52131U 22029AV  22125.58334491 -.00089616  00000-0 -64003-3 0  9994,2 52131  53.2148 269.5414 0001392  60.2259 220.2656 15.73231976  3715,6727.804,91.531,350.606,348.732,0.0
52131.0,STARLINK-3711,PAYLOAD,2022-05-05 20:00:01,15.73157469,0.0001021,53.2147,268.3057,51.3239,205.8031,6.7549e-05,8.853e-05,0.0,0 STARLINK-3711,1 52131U 22029AV  22125.83335648  .00008853  00000-0  67549-4 0  9998,2 52131  53.2147 268.3057 0001021  51.3239 205.8031 15.73157469  8751,6728.016,91.536,350.5680000000001,349.195,0.0
52131.0,STARLINK-3711,PAYLOAD,2022-05-05 22:00:00,15.73172196,0.000104,53.2143,267.8931,50.1347,319.1424,-0.00014197,-0.00020471,0.0,0 STARLINK-3711,1 52131U 22029AV  22125.91667824 -.00020471  00000-0 -14197-3 0  9993,2 52131  53.2143 267.8931 0001040  50.1347 319.1424 15.73172196  3697,6727.974,91.535,350.539,349.14,0.0
52131.0,STARLINK-3711,PAYLOAD,2022-05-06 06:00:00,15.73045514,0.0001026,53.2142,266.2421,89.5695,8.427,-4.5489e-05,-6.955e-05,0.0,0 STARLINK-3711,1 52131U 22029AV  22126.25001157 -.00006955  00000-0 -45489-4 0  9992,2 52131  53.2142 266.2421 0001026  89.5695   8.4270 15.73045514  8829,6728.3359999999975,91.542,350.891,349.51,0.0
